IRIDIUM 171             
1 43929U 19002H   25032.92105418  .00000178  00000+0  56661-4 0  9994
2 43929  86.3996 202.8590 0002369  85.5959 274.5508 14.34214125317253
IRIDIUM 170             
1 43930U 19002J   25032.85488973  .00000936  00000+0  14441-3 0  9999
2 43930  86.6112 202.6656 0002108  96.7438 263.4019 14.72268660325647
IRIDIUM 167             
1 43931U 19002K   25032.49609949  .00000571  00000+0  19697-3 0  9991
2 43931  86.3984 202.8035 0002426  95.0703 265.0769 14.34216646317191
IRIDIUM 181             
1 56726U 23068S   25032.61758847  .00000766  00000+0  22162-3 0  9997
2 56726  86.4474 265.8764 0002537  81.6541 278.4948 14.43296871 90232
IRIDIUM 177             
1 56727U 23068T   25032.52993455  .00001238  00000+0  15938-3 0  9992
2 56727  86.1978 206.4595 0001895  94.0205 266.1232 14.80243513 92309
IRIDIUM 174             
1 56728U 23068U   25032.86245000  .00002887  00000+0  37649-3 0  9990
2 56728  86.1975 206.4220 0002318  83.1954 276.9531 14.80221582 92351
IRIDIUM 178             
1 56729U 23068V   25032.65423706  .00000995  00000+0  12747-3 0  9999
2 56729  86.5750 234.8351 0002754  71.1167 289.0353 14.80225219 92329
IRIDIUM 179             
1 56730U 23068W   25032.51360357  .00001658  00000+0  21474-3 0  9992
2 56730  86.6758 241.9158 0002202  81.6015 278.5456 14.80228965 92306
